[{"OBJECT_NAME":"AEROCUBE 5C","OBJECT_ID":"2015-058B","EPOCH":"2026-03-09T17:05:14.563104","MEAN_MOTION":14.90857126,"ECCENTRICITY":0.01306722,"INCLINATION":64.7674,"RA_OF_ASC_NODE":211.9094,"ARG_OF_PERICENTER":102.486,"MEAN_ANOMALY":259.0908,"EPHEMERIS_TYPE":0,"CLASSIFICATION_TYPE":"U","NORAD_CAT_ID":40965,"ELEMENT_SET_NO":999,"REV_AT_EPOCH":35082,"BSTAR":0.0004279104,"MEAN_MOTION_DOT":4.804e-5,"MEAN_MOTION_DDOT":0},{"OBJECT_NAME":"STARLINK-3911","OBJECT_ID":"2022-051AJ","EPOCH":"2026-03-09T10:42:18.694944","MEAN_MOTION":15.08835724,"ECCENTRICITY":0.0001337,"INCLINATION":53.2174,"RA_OF_ASC_NODE":120.2157,"ARG_OF_PERICENTER":96.0731,"MEAN_ANOMALY":264.0413,"EPHEMERIS_TYPE":0,"CLASSIFICATION_TYPE":"U","NORAD_CAT_ID":52565,"ELEMENT_SET_NO":999,"REV_AT_EPOCH":21154,"BSTAR":-3.2442472e-5,"MEAN_MOTION_DOT":-8.04e-6,"MEAN_MOTION_DDOT":0}]
