AEROCUBE 5C             
1 40965U 15058B   26068.71197411  .00004804  00000+0  42791-3 0  9997
2 40965  64.7674 211.9094 0130672 102.4860 259.0908 14.90857126350820
STARLINK-3911           
1 52565U 22051AJ  26068.44604971 -.00000804  00000+0 -32442-4 0  9992
2 52565  53.2174 120.2157 0001337  96.0731 264.0413 15.08835724211541
